{
  "type": "FeatureCollection",
  "properties": {
    "is_demo": true,
    "note": "Координаты вымышлены для демонстрации. Реальные координаты объекта в материалах ТЗ и датасете не найдены — эта геометрия не привязана к фактической площадке."
  },
  "features": [
    {
      "type": "Feature",
      "properties": {
        "kind": "site_boundary",
        "id": "site-demo-1",
        "name": "Демонстрационная площадка №1"
      },
      "geometry": {
        "type": "Polygon",
        "coordinates": [
          [
            [37.6015, 55.7460],
            [37.6058, 55.7460],
            [37.6058, 55.7488],
            [37.6015, 55.7488],
            [37.6015, 55.7460]
          ]
        ]
      }
    },
    {
      "type": "Feature",
      "properties": {
        "kind": "zone",
        "id": "zone-a",
        "name": "Зона А — котлован",
        "description": "Земляные и фундаментные работы: устройство котлована, бетонной подготовки, уплотнение грунта."
      },
      "geometry": {
        "type": "Polygon",
        "coordinates": [
          [
            [37.6015, 55.7460],
            [37.6034, 55.7460],
            [37.6034, 55.7488],
            [37.6015, 55.7488],
            [37.6015, 55.7460]
          ]
        ]
      }
    },
    {
      "type": "Feature",
      "properties": {
        "kind": "zone",
        "id": "zone-b",
        "name": "Зона Б — приобъектная площадка",
        "description": "Складирование, проезды, вспомогательные работы."
      },
      "geometry": {
        "type": "Polygon",
        "coordinates": [
          [
            [37.6034, 55.7460],
            [37.6058, 55.7460],
            [37.6058, 55.7488],
            [37.6034, 55.7488],
            [37.6034, 55.7460]
          ]
        ]
      }
    }
  ]
}
